OSCAR 7 (AO-7)          
1 07530U 74089B   24137.21685483 -.00000013  00000+0  21002-3 0  9999
2 07530 101.9777 131.5669 0012430 143.8851 227.5215 12.53675321265271
PHASE 3B (AO-10)        
1 14129U 83058B   24136.84348469  .00000218  00000+0  00000+0 0  9992
2 14129  27.4518 344.2053 6035273 268.7877  25.7872  2.05863643279789
UOSAT 2 (UO-11)         
1 14781U 84021B   24137.18654271  .00003739  00000+0  42754-3 0  9993
2 14781  97.7029 107.4271 0008193 170.4688 189.6685 14.86568901164736
LUSAT (LO-19)           
1 20442U 90005G   24136.90765787  .00000624  00000+0  24230-3 0  9996
2 20442  98.8815 126.3288 0010577 281.7817  78.2180 14.33524289793159
EYESAT A (AO-27)        
1 22825U 93061C   24136.87315820  .00000459  00000+0  19357-3 0  9993
2 22825  98.7907 189.3075 0008715 166.1761 193.9661 14.30484760597994
ITAMSAT (IO-26)         
1 22826U 93061D   24136.86032838  .00000508  00000+0  21077-3 0  9995
2 22826  98.7855 189.1578 0009509 152.5089 207.6598 14.30864746598277
RADIO ROSTO (RS-15)     
1 23439U 94085A   24136.91946062 -.00000013  00000+0  83672-3 0  9993
2 23439  64.8156  95.9493 0150816 149.9201 211.0490 11.27576881209957
JAS-2 (FO-29)           
1 24278U 96046B   24136.80738533  .00000049  00000+0  88836-4 0  9990
2 24278  98.5790  75.7072 0349008 272.1301  83.9919 13.53187873370051
TECHSAT 1B (GO-32)      
1 25397U 98043D   24136.84665471  .00000388  00000+0  18874-3 0  9996
2 25397  98.9194 103.0912 0000369 201.9688 158.1474 14.24039659342817
ISS (ZARYA)             
1 25544U 98067A   24137.45605221  .00007601  00000+0  13427-3 0  9995
2 25544  51.6388 112.6751 0003062 177.9464 326.1232 15.51408839453628
PCSAT (NO-44)           
1 26931U 01043C   24137.48097041  .00000796  00000+0  33198-3 0  9997
2 26931  67.0524  53.4635 0006617 281.5018  78.5340 14.31222149181576
SAUDISAT 1C (SO-50)     
1 27607U 02058C   24136.87839881  .00003926  00000+0  54685-3 0  9995
2 27607  64.5560 320.8478 0029238 129.2549 231.1156 14.78837744151546
CUTE-1 (CO-55)          
1 27844U 03031E   24136.89258330  .00001133  00000+0  52009-3 0  9992
2 27844  98.6775 144.3725 0008692 233.9702 126.0671 14.23227869 83194
CUBESAT XI-IV (CO-57)   
1 27848U 03031J   24136.95473369  .00000969  00000+0  45233-3 0  9991
2 27848  98.6805 144.6966 0008418 251.7624 108.2638 14.22674626 82953
MOZHAYETS 4 (RS-22)     
1 27939U 03042A   24137.55560126  .00004304  00000+0  72807-3 0  9993
2 27939  98.2875 293.2648 0012688 155.5191 246.3612 14.69824699103632
CUBESAT XI-V            
1 28895U 05043F   24137.12938181  .00004908  00000+0  87185-3 0  9996
2 28895  98.1969 272.9235 0016962  99.1618 261.1506 14.67538359989989
CUTE-1.7+APD II (CO-65) 
1 32785U 08021C   24136.85670852  .00011110  00000+0  98512-3 0  9994
2 32785  97.7530 102.4686 0013482  77.3284 282.9444 14.96309125870642
SEEDS II (CO-66)        
1 32791U 08021J   24137.45616212  .00017688  00000+0  13111-2 0  9995
2 32791  97.6901 108.8229 0007501  66.3618 293.8393 15.03140006871833
YUBILEINY (RS-30)       
1 32953U 08025A   24137.44285957  .00000048  00000+0  27267-3 0  9996
2 32953  82.4996 109.2308 0019392 170.2267 189.9193 12.43140639725180
KKS-1 (KISEKI)          
1 33499U 09002H   24137.21059274  .00004089  00000+0  56539-3 0  9997
2 33499  98.1417  38.4807 0007342 227.2836 132.7757 14.78623419823826
SWISSCUBE               
1 35932U 09051B   24136.93163538  .00002974  00000+0  64396-3 0  9993
2 35932  98.4754  19.5948 0008555  62.5467 297.6601 14.58957797777857
BEESAT-1                
1 35933U 09051C   24137.41077333  .00002826  00000+0  61576-3 0  9998
2 35933  98.4681  21.0339 0006928  72.9280 287.2677 14.58708996778077
ITUPSAT1                
1 35935U 09051E   24137.40273402  .00002564  00000+0  57220-3 0  9994
2 35935  98.4781  20.8273 0009219  77.5157 282.7072 14.57673076777666
XIWANG-1 (HOPE-1)       
1 36122U 09072B   24136.88661012 -.00000010  00000+0  88513-4 0  9990
2 36122 100.2921  96.0112 0007504 172.5105 187.6122 13.16400725692707
O/OREOS (USA 219)       
1 37224U 10062C   24137.05215542  .00005606  00000+0  62963-3 0  9993
2 37224  71.9737 359.0760 0013937  75.6667 284.6047 14.87063145  3052
JUGNU                   
1 37839U 11058B   24137.55766073  .00000854  00000+0  30924-3 0  9998
2 37839  19.9609 253.8865 0018720 308.2044 147.2049 14.13201246651241
SRMSAT                  
1 37841U 11058D   24136.93698498  .00000801  00000+0  29378-3 0  9990
2 37841  19.9739 351.8396 0011855 100.1458 289.9678 14.11104892650008
M-CUBED & EXP-1 PRIME   
1 37855U 11061F   24137.18170822  .00270598  00000+0  19508-2 0  9998
2 37855 101.6880 302.8212 0040074  72.4820 288.0800 15.71638657688478
STRAND-1                
1 39090U 13009E   24137.50528185  .00001162  00000+0  41410-3 0  9997
2 39090  98.3822 326.6656 0008696 355.6056   4.5053 14.36041851587716
ZACUBE-1 (TSHEPISOSAT)  
1 39417U 13066B   24136.86522506  .00008275  00000+0  86833-3 0  9992
2 39417  97.7317  93.5735 0049069 267.4378  92.1222 14.88870210566775
GOMX-1                  
1 39430U 13066Q   24137.47578204  .00007073  00000+0  11768-2 0  9990
2 39430  97.7370  13.7740 0140408 354.3596   5.6019 14.63989873558409
CUBEBUG-2 (LO-74)       
1 39440U 13066AA  24136.79549146  .00010676  00000+0  12625-2 0  9994
2 39440  97.8111  81.1748 0071184  21.5716 338.8471 14.82973569563531
FUNCUBE-1 (AO-73)       
1 39444U 13066AE  24136.88515466  .00011161  00000+0  10932-2 0  9995
2 39444  97.7171  96.6371 0046593 247.4647 112.1637 14.91620328565295
UWE-3                   
1 39446U 13066AG  24136.86175321  .00009831  00000+0  11016-2 0  9992
2 39446  97.7788  87.3039 0059802 327.4241  32.3290 14.85735874563905
SPROUT                  
1 39770U 14029E   24137.36116549  .00180037  00000+0  46681-2 0  9999
2 39770  98.0092 286.8033 0008700 256.1187 103.9089 15.38257256542747
UNISAT-6                
1 40012U 14033C   24137.42746790  .00006911  00000+0  90536-3 0  9996
2 40012  97.7012 301.1594 0053774  50.0184 310.5732 14.79636533533146
DUCHIFAT-1              
1 40021U 14033M   24137.48508413  .00028250  00000+0  19178-2 0  9992
2 40021  98.0901 119.7163 0012259 197.2444 162.8367 15.06297697539354
QB50P1                  
1 40025U 14033R   24136.85326693  .00012745  00000+0  10495-2 0  9999
2 40025  98.0424  96.5702 0007497 270.1044  89.9319 14.99207184538037
KAITUO 1A               
1 40904U 15049F   24137.52303573  .00088385  00000+0  18767-2 0  9993
2 40904  97.4867 153.2319 0009688  78.9359 281.2978 15.44658116479554
XW-2C                   
1 40906U 15049H   24137.51195956  .00055843  00000+0  13669-2 0  9997
2 40906  97.4808 153.5382 0010259  67.6333 292.5999 15.40532643479591
XW-2D                   
1 40907U 15049J   24137.47981153  .00087168  00000+0  17122-2 0  9998
2 40907  97.4747 155.7022 0008111  62.2844 297.9227 15.46960477479792
LILACSAT-2              
1 40908U 15049K   24137.52414238  .00019106  00000+0  74988-3 0  9991
2 40908  97.5253 146.0183 0014548 101.2839 259.0035 15.25672277478662
XW-2B                   
1 40911U 15049N   24137.49160893  .00083114  00000+0  16705-2 0  9998
2 40911  97.4723 155.8565 0008272  63.0372 297.1721 15.46305843479664
LAPAN-A2                
1 40931U 15052B   24136.95717385  .00002030  00000+0  18763-3 0  9993
2 40931   6.0023 222.9950 0013567 344.2675  15.7031 14.77819872466795
FOX-1A (AO-85)          
1 40967U 15058D   24137.34272128  .00011780  00000+0  11028-2 0  9991
2 40967  64.7771 113.1409 0188485 313.7925  44.7719 14.81865708   272
CAS-2T & KS-1Q          
1 41847U 16066G   24136.88461783  .00001690  00000+0  25770-3 0  9993
2 41847  98.4606 208.4218 0353301 274.6651  81.4278 14.41131667394842
ZHUHAI-1 02 (CAS-4B)    
1 42759U 17034B   24137.46752548  .00037025  00000+0  13686-2 0  9992
2 42759  43.0205  45.6850 0011248 144.8173 215.3424 15.27033031382554
ZHUHAI-1 01 (CAS-4A)    
1 42761U 17034D   24137.47101548  .00025195  00000+0  93323-3 0  9996
2 42761  43.0230  44.0299 0010085 153.6288 206.5079 15.27138154382569
MAX VALIER SAT          
1 42778U 17036P   24136.84101016  .00248624  00000+0  14931-2 0  9997
2 42778  97.0976 174.0470 0001404 204.3322 155.7879 15.77060209384460
RADFXSAT (FOX-1B)       
1 43017U 17073E   24136.62003492  .00017518  00000+0  10867-2 0  9990
2 43017  97.5831  13.2661 0214117  42.9909 318.7819 14.92635552350803
DIWATA-2B               
1 43678U 18084H   24137.48736582  .00004243  00000+0  39196-3 0  9992
2 43678  98.0681 294.5584 0009896 132.0574 228.1489 14.95131672302180
ES'HAIL 2               
1 43700U 18090A   24137.16906471  .00000147  00000+0  00000+0 0  9993
2 43700   0.0149 280.5260 0001682 171.6142 228.9390  1.00276123 20278
FOX-1CLIFF (AO-95)      
1 43770U 18099N   24137.13723663  .00014278  00000+0  10015-2 0  9996
2 43770  97.5471 195.6761 0015735 111.4743 248.8163 15.05184419297742
ITASAT                  
1 43786U 18099AE  24137.12629576  .00012018  00000+0  87555-3 0  9994
2 43786  97.5103 195.3015 0018804 101.9897 258.3438 15.03755668297754
JY1SAT (JO-97)          
1 43803U 18099AX  24137.43025424  .00016859  00000+0  11358-2 0  9994
2 43803  97.5229 196.8162 0011147  59.0806 301.1516 15.06699953297917
UWE-4                   
1 43880U 18111E   24136.70930790  .00016463  00000+0  10472-2 0  9991
2 43880  97.6131  42.6806 0018848 116.7155 243.6005 15.08731831294533
JAISAT-1                
1 44419U 19038F   24137.50593060  .00555429  00000+0  25991-2 0  9995
2 44419  97.6741 143.7217 0010421 157.6705 202.5018 15.81762035270175
DUCHIFAT-3              
1 44854U 19089C   24137.57568533  .00033382  00000+0  17299-2 0  9999
2 44854  36.9569 240.8035 0007191 187.1639 172.9006 15.15318895243404
